NORAD_CAT_ID,OBJECT_NAME,OBJECT_TYPE,EPOCH,MEAN_MOTION,ECCENTRICITY,INCLINATION,RA_OF_ASC_NODE,ARG_OF_PERICENTER,MEAN_ANOMALY,BSTAR,MEAN_MOTION_DOT,MEAN_MOTION_DDOT,TLE_LINE0,TLE_LINE1,TLE_LINE2,SEMIMAJOR_AXIS,PERIOD,APOGEE,PERIGEE,DECAYED
54807.0,STARLINK-5410,PAYLOAD,2023-05-15 05:53:30,15.08839465,8.6e-05,53.2179,330.1075,91.6227,268.4864,2.0644e-05,4.1e-07,0.0,0 STARLINK-5410,1 54807U 22175BB  23135.24548945  .00000041  00000-0  20644-4 0  9991,2 54807  53.2179 330.1075 0000860  91.6227 268.4864 15.08839465 24725,6917.882,95.438,540.342,539.152,0.0
54807.0,STARLINK-5410,PAYLOAD,2023-05-15 17:01:12,15.08831624,9.27e-05,53.2175,328.0245,97.4678,262.642,9.5396e-06,-1.36e-06,0.0,0 STARLINK-5410,1 54807U 22175BB  23135.70917569 -.00000136  00000-0  95396-5 0  9997,2 54807  53.2175 328.0245 0000927  97.4678 262.6420 15.08831624 22635,6917.906,95.438,540.412,539.13,0.0
54807.0,STARLINK-5410,PAYLOAD,2023-05-16 12:05:50,15.08791646,6.59e-05,53.2177,324.4557,112.4751,247.6311,0.00056272,8.668e-05,0.0,0 STARLINK-5410,1 54807U 22175BB  23136.50406241  .00008668  00000-0  56272-3 0  9991,2 54807  53.2177 324.4557 0000659 112.4751 247.6311 15.08791646 22759,6918.028,95.441,540.349,539.437,0.0
54807.0,STARLINK-5410,PAYLOAD,2023-05-17 02:24:18,15.08841468,9.27e-05,53.2173,321.7804,90.0214,270.0884,3.2372e-05,2.28e-06,0.0,0 STARLINK-5410,1 54807U 22175BB  23137.10021087  .00000228  00000-0  32372-4 0  9999,2 54807  53.2173 321.7804 0000927  90.0214 270.0884 15.08841468 22846,6917.876,95.437,540.382,539.1,0.0
54807.0,STARLINK-5410,PAYLOAD,2023-05-17 05:35:05,15.08820512,9.51e-05,53.2167,321.1871,102.4695,257.6404,0.00015231,2.136e-05,0.0,0 STARLINK-5410,1 54807U 22175BB  23137.23270043  .00002136  00000-0  15231-3 0  9995,2 54807  53.2167 321.1871 0000951 102.4695 257.6404 15.08820512 22863,6917.94,95.439,540.463,539.147,0.0
54807.0,STARLINK-5410,PAYLOAD,2023-05-17 18:18:09,15.08841599,8.43e-05,53.2177,318.8062,88.659,271.4498,3.9734e-05,3.45e-06,0.0,0 STARLINK-5410,1 54807U 22175BB  23137.76261081  .00000345  00000-0  39734-4 0  9990,2 54807  53.2177 318.8062 0000843  88.6590 271.4498 15.08841599 22942,6917.876,95.437,540.324,539.157,0.0
54807.0,STARLINK-5410,PAYLOAD,2023-05-17 19:53:32,15.08842704,8.54e-05,53.2178,318.5087,88.4445,271.6645,4.8119e-05,4.78e-06,0.0,0 STARLINK-5410,1 54807U 22175BB  23137.82884974  .00000478  00000-0  48119-4 0  9993,2 54807  53.2178 318.5087 0000854  88.4445 271.6645 15.08842704 25113,6917.872,95.437,540.328,539.146,0.0
54807.0,STARLINK-5410,PAYLOAD,2023-05-18 11:47:24,15.08833739,7.28e-05,53.2178,315.5351,85.3221,274.7854,-7.0167e-05,-1.404e-05,0.0,0 STARLINK-5410,1 54807U 22175BB  23138.49125891 -.00001404  00000-0 -70167-4 0  9993,2 54807  53.2178 315.5351 0000728  85.3221 274.7854 15.08833739 23057,6917.9,95.438,540.268,539.261,0.0
54807.0,STARLINK-5410,PAYLOAD,2023-05-18 18:08:56,15.08839459,9.19e-05,53.2173,314.3462,81.5536,278.556,-6.2197e-06,-3.87e-06,0.0,0 STARLINK-5410,1 54807U 22175BB  23138.75621413 -.00000387  00000-0 -62197-5 0  9997,2 54807  53.2173 314.3462 0000919  81.5536 278.5560 15.08839459 23096,6917.882,95.438,540.383,539.111,0.0
54807.0,STARLINK-5410,PAYLOAD,2023-05-18 21:19:42,15.08843624,8.66e-05,53.2177,313.7507,83.8066,276.3025,-1.3818e-05,-5.08e-06,0.0,0 STARLINK-5410,1 54807U 22175BB  23138.88869131 -.00000508  00000-0 -13818-4 0  9992,2 54807  53.2177 313.7507 0000866  83.8066 276.3025 15.08843624 25270,6917.869,95.437,540.333,539.135,0.0
54807.0,STARLINK-5410,PAYLOAD,2023-05-19 17:59:43,15.08840182,9.16e-05,53.2176,309.8846,87.4084,272.7013,3.4447e-05,2.61e-06,0.0,0 STARLINK-5410,1 54807U 22175BB  23139.74981252  .00000261  00000-0  34447-4 0  9992,2 54807  53.2176 309.8846 0000916  87.4084 272.7013 15.08840182 25405,6917.88,95.438,540.379,539.111,0.0
54807.0,STARLINK-5410,PAYLOAD,2023-05-20 17:50:30,15.08847357,8.54e-05,53.2177,305.4246,78.7059,281.4029,0.000113,1.511e-05,0.0,0 STARLINK-5410,1 54807U 22175BB  23140.74340417  .00001511  00000-0  11300-3 0  9997,2 54807  53.2177 305.4246 0000854  78.7059 281.4029 15.08847357 23399,6917.858,95.437,540.314,539.132,0.0
54807.0,STARLINK-5410,PAYLOAD,2023-05-21 03:22:49,15.08838739,9.69e-05,53.2179,303.6397,80.4482,279.662,4.0665e-07,-2.81e-06,0.0,0 STARLINK-5410,1 54807U 22175BB  23141.14085283 -.00000281  00000-0  40665-6 0  9992,2 54807  53.2179 303.6397 0000969  80.4482 279.6620 15.08838739 23452,6917.884,95.438,540.42,539.079,0.0
54807.0,STARLINK-5410,PAYLOAD,2023-05-21 17:41:18,15.08828867,8.41e-05,53.2168,300.9653,98.4383,261.6704,-6.0463e-05,-1.249e-05,0.0,0 STARLINK-5410,1 54807U 22175BB  23141.73702134 -.00001249  00000-0 -60463-4 0  9990,2 54807  53.2168 300.9653 0000841  98.4383 261.6704 15.08828867 23548,6917.914,95.438,540.361,539.198,0.0
54807.0,STARLINK-5410,PAYLOAD,2023-05-21 20:52:04,15.08833423,8.49e-05,53.2175,300.3698,86.1968,273.9121,-5.0682e-05,-1.094e-05,0.0,0 STARLINK-5410,1 54807U 22175BB  23141.86950143 -.00001094  00000-0 -50682-4 0  9999,2 54807  53.2175 300.3698 0000849  86.1968 273.9121 15.08833423 25725,6917.9,95.438,540.353,539.178,0.0
54807.0,STARLINK-5410,PAYLOAD,2023-05-22 11:10:32,15.08842838,8.38e-05,53.2173,297.6939,93.694,266.4148,-8.6938e-05,-1.671e-05,0.0,0 STARLINK-5410,1 54807U 22175BB  23142.46565930 -.00001671  00000-0 -86938-4 0  9996,2 54807  53.2173 297.6939 0000838  93.6940 266.4148 15.08842838 23656,6917.872,95.437,540.316,539.157,0.0
54807.0,STARLINK-5410,PAYLOAD,2023-05-22 17:32:04,15.08848475,8.5e-05,53.2168,296.505,101.7528,258.3559,-2.6142e-05,-7.04e-06,0.0,0 STARLINK-5410,1 54807U 22175BB  23142.73061261 -.00000704  00000-0 -26142-4 0  9991,2 54807  53.2168 296.5050 0000850 101.7528 258.3559 15.08848475 23692,6917.854,95.437,540.308,539.131,0.0
54807.0,STARLINK-5410,PAYLOAD,2023-05-23 15:47:30,15.08796538,9.88e-05,53.2164,292.3421,109.5631,250.5467,0.00046756,7.152e-05,0.0,0 STARLINK-5410,1 54807U 22175BB  23143.65798755  .00007152  00000-0  46756-3 0  9992,2 54807  53.2164 292.3421 0000988 109.5631 250.5467 15.08796538 23837,6918.013,95.44,540.562,539.195,0.0
54807.0,STARLINK-5410,PAYLOAD,2023-05-23 17:22:53,15.08803114,9.36e-05,53.2166,292.0447,106.4724,253.6371,0.00040656,6.182e-05,0.0,0 STARLINK-5410,1 54807U 22175BB  23143.72422749  .00006182  00000-0  40656-3 0  9992,2 54807  53.2166 292.0447 0000936 106.4724 253.6371 15.08803114 26005,6917.993,95.44,540.506,539.211,0.0
54807.0,STARLINK-5410,PAYLOAD,2023-05-24 02:55:11,15.08835548,6.7e-05,53.217,290.2603,91.2361,268.8707,3.5639e-05,2.8e-06,0.0,0 STARLINK-5410,1 54807U 22175BB  23144.12166370  .00000280  00000-0  35639-4 0  9991,2 54807  53.2170 290.2603 0000670  91.2361 268.8707 15.08835548 23900,6917.894,95.438,540.222,539.295,0.0
54807.0,STARLINK-5410,PAYLOAD,2023-05-24 15:38:16,15.08842442,6.71e-05,53.2166,287.8816,79.4015,280.7053,7.6173e-07,-2.75e-06,0.0,0 STARLINK-5410,1 54807U 22175BB  23144.65158159 -.00000275  00000-0  76173-6 0  9990,2 54807  53.2166 287.8816 0000671  79.4015 280.7053 15.08842442 26145,6917.873,95.437,540.202,539.274,0.0
54807.0,STARLINK-5410,PAYLOAD,2023-05-25 13:53:40,15.08841497,8.27e-05,53.2174,283.7182,81.5917,278.5169,4.0826e-05,3.62e-06,0.0,0 STARLINK-5410,1 54807U 22175BB  23145.57894037  .00000362  00000-0  40826-4 0  9994,2 54807  53.2174 283.7182 0000827  81.5917 278.5169 15.08841497 26280,6917.876,95.437,540.313,539.169,0.0
54807.0,STARLINK-5410,PAYLOAD,2023-05-25 15:29:03,15.08841535,9.03e-05,53.2174,283.4212,73.7276,286.3816,5.1606e-05,5.34e-06,0.0,0 STARLINK-5410,1 54807U 22175BB  23145.64518013  .00000534  00000-0  51606-4 0  9998,2 54807  53.2174 283.4212 0000903  73.7276 286.3816 15.08841535 26297,6917.876,95.437,540.365,539.116,0.0
54807.0,STARLINK-5410,PAYLOAD,2023-05-26 13:44:27,15.08830692,8.42e-05,53.2174,279.258,75.2712,284.8373,0.00014681,2.049e-05,0.0,0 STARLINK-5410,1 54807U 22175BB  23146.57254293  .00002049  00000-0  14681-3 0  9992,2 54807  53.2174 279.2580 0000842  75.2712 284.8373 15.08830692 26431,6917.909,95.438,540.356,539.191,0.0
54807.0,STARLINK-5410,PAYLOAD,2023-05-26 18:30:36,15.08847298,7.37e-05,53.217,278.3651,85.5469,274.5607,2.7575e-06,-2.44e-06,0.0,0 STARLINK-5410,1 54807U 22175BB  23146.77125562 -.00000244  00000-0  27575-5 0  9994,2 54807  53.2170 278.3651 0000737  85.5469 274.5607 15.08847298 24302,6917.858,95.437,540.233,539.213,0.0
54807.0,STARLINK-5410,PAYLOAD,2023-05-27 15:10:38,15.08822147,9.39e-05,53.2177,274.4974,101.7877,258.322,0.00016036,2.264e-05,0.0,0 STARLINK-5410,1 54807U 22175BB  23147.63238755  .00002264  00000-0  16036-3 0  9990,2 54807  53.2177 274.4974 0000939 101.7877 258.3220 15.08822147 24433,6917.935,95.439,540.45,539.15,0.0
54807.0,STARLINK-5410,PAYLOAD,2023-05-28 08:39:52,15.0883254,9.14e-05,53.218,271.2242,97.9532,262.1564,-4.1537e-05,-9.49e-06,0.0,0 STARLINK-5410,1 54807U 22175BB  23148.36102788 -.00000949  00000-0 -41537-4 0  9992,2 54807  53.2180 271.2242 0000914  97.9532 262.1564 15.08832540 24541,6917.903,95.438,540.4,539.136,0.0
54807.0,STARLINK-5410,PAYLOAD,2023-05-28 15:01:25,15.08833523,8.95e-05,53.218,270.0349,97.027,263.0824,-3.1539e-05,-7.89e-06,0.0,0 STARLINK-5410,1 54807U 22175BB  23148.62598804 -.00000789  00000-0 -31539-4 0  9992,2 54807  53.2180 270.0349 0000895  97.0270 263.0824 15.08833523 26749,6917.9,95.438,540.384,539.146,0.0
54807.0,STARLINK-5410,PAYLOAD,2023-05-29 00:33:43,15.08842695,8.17e-05,53.218,268.2516,95.1218,264.9868,-5.8601e-06,-3.81e-06,0.0,0 STARLINK-5410,1 54807U 22175BB  23149.02342181 -.00000381  00000-0 -58601-5 0  9990,2 54807  53.2180 268.2516 0000817  95.1218 264.9868 15.08842695 24644,6917.872,95.437,540.302,539.172,0.0
54807.0,STARLINK-5410,PAYLOAD,2023-05-29 14:52:11,15.08847365,7.99e-05,53.2178,265.578,90.8313,269.2771,0.00012183,1.652e-05,0.0,0 STARLINK-5410,1 54807U 22175BB  23149.61957458  .00001652  00000-0  12183-3 0  9997,2 54807  53.2178 265.5780 0000799  90.8313 269.2771 15.08847365 26890,6917.858,95.437,540.276,539.17,0.0
